[
  {
    "name": "ONEWEB-0531",
    "noradId": "54146",
    "line1": "1 54146U 22138AK  26176.79354830 -.00000133  00000+0 -35885-3 0  9997",
    "line2": "2 54146  87.9196 272.7200 0002921  96.4296 263.7170 13.20771916180442"
  },
  {
    "name": "ONEWEB-0535",
    "noradId": "54147",
    "line1": "1 54147U 22138AL  26176.79822554 -.00000054  00000+0 -16697-3 0  9993",
    "line2": "2 54147  87.9183 303.2435 0002099  92.8441 267.2932 13.19725681177972"
  },
  {
    "name": "ONEWEB-0536",
    "noradId": "54148",
    "line1": "1 54148U 22138AM  26176.70431848 -.00000051  00000+0 -15723-3 0  9993",
    "line2": "2 54148  87.9185 272.7594 0003041  98.8944 261.2534 13.20771625180420"
  },
  {
    "name": "ONEWEB-0527",
    "noradId": "54642",
    "line1": "1 54642U 22166A   26176.65463940 -.00000010  00000+0 -55868-4 0  9995",
    "line2": "2 54642  87.9248 242.3129 0002052  99.8619 260.2746 13.21823349172659"
  },
  {
    "name": "ONEWEB-0528",
    "noradId": "54643",
    "line1": "1 54643U 22166B   26176.65547398  .00000022  00000+0  21989-4 0  9994",
    "line2": "2 54643  87.9249 242.3150 0001964 104.3618 255.7734 13.21824682172665"
  },
  {
    "name": "ONEWEB-0539",
    "noradId": "54644",
    "line1": "1 54644U 22166C   26176.69332106  .00000002  00000+0 -27086-4 0  9991",
    "line2": "2 54644  87.9258 242.2794 0001896  92.6250 267.5101 13.21826663172664"
  },
  {
    "name": "ONEWEB-0540",
    "noradId": "54645",
    "line1": "1 54645U 22166D   26176.70018220 -.00000088  00000+0 -24507-3 0  9991",
    "line2": "2 54645  87.9247 242.3077 0002009  94.8946 265.2418 13.21827518172656"
  },
  {
    "name": "ONEWEB-0542",
    "noradId": "54646",
    "line1": "1 54646U 22166E   26176.70341679 -.00000006  00000+0 -45495-4 0  9999",
    "line2": "2 54646  87.9257 242.2762 0001908  90.4743 269.6610 13.21824619172664"
  },
  {
    "name": "ONEWEB-0545",
    "noradId": "54647",
    "line1": "1 54647U 22166F   26176.66809102  .00000007  00000+0 -14408-4 0  9995",
    "line2": "2 54647  87.9249 242.2946 0001934  82.4860 277.6493 13.21828025172629"
  },
  {
    "name": "ONEWEB-0580",
    "noradId": "54648",
    "line1": "1 54648U 22166G   26176.71853215 -.00000051  00000+0 -15572-3 0  9998",
    "line2": "2 54648  87.9248 242.2841 0002100  86.4628 273.6746 13.21828156172672"
  },
  {
    "name": "ONEWEB-0582",
    "noradId": "54649",
    "line1": "1 54649U 22166H   26176.68491209  .00000059  00000+0  11038-3 0  9995",
    "line2": "2 54649  87.9248 242.2834 0001952  85.2225 274.9131 13.21827357172640"
  },
  {
    "name": "ONEWEB-0583",
    "noradId": "54650",
    "line1": "1 54650U 22166J   26176.69668420  .00000763  00000+0  18147-2 0  9998",
    "line2": "2 54650  87.9230 242.3042 0001806  94.4822 265.6519 13.21829855172651"
  },
  {
    "name": "ONEWEB-0584",
    "noradId": "54651",
    "line1": "1 54651U 22166K   26176.71687403 -.00000024  00000+0 -88935-4 0  9990",
    "line2": "2 54651  87.9245 242.2857 0002065  94.2466 265.8904 13.21826114172645"
  },
  {
    "name": "ONEWEB-0585",
    "noradId": "54652",
    "line1": "1 54652U 22166L   26176.66472988  .00000004  00000+0 -21592-4 0  9998",
    "line2": "2 54652  87.9252 242.2837 0002087 102.6371 257.4996 13.21827098172645"
  },
  {
    "name": "ONEWEB-0586",
    "noradId": "54653",
    "line1": "1 54653U 22166M   26176.67818803  .00000033  00000+0  49479-4 0  9995",
    "line2": "2 54653  87.9247 242.3063 0001959  94.5414 265.5944 13.21824770172643"
  },
  {
    "name": "ONEWEB-0587",
    "noradId": "54654",
    "line1": "1 54654U 22166N   26176.68828060  .00000074  00000+0  14777-3 0  9990",
    "line2": "2 54654  87.9259 242.2784 0002173 106.9672 253.1700 13.21825079172803"
  },
  {
    "name": "ONEWEB-0589",
    "noradId": "54655",
    "line1": "1 54655U 22166P   26176.67482432  .00000107  00000+0  22837-3 0  9992",
    "line2": "2 54655  87.9245 242.2925 0002125  74.2193 285.9175 13.21824577172663"
  },
  {
    "name": "ONEWEB-0590",
    "noradId": "54656",
    "line1": "1 54656U 22166Q   26176.69990756 -.00000046  00000+0 -14332-3 0  9993",
    "line2": "2 54656  87.9257 242.2783 0002522  95.0641 265.0781 13.21827525172656"
  },
  {
    "name": "ONEWEB-0591",
    "noradId": "54657",
    "line1": "1 54657U 22166R   26176.71183321 -.00000103  00000+0 -28076-3 0  9993",
    "line2": "2 54657  87.9248 242.2899 0002124  96.9874 263.1501 13.21826726172685"
  },
  {
    "name": "ONEWEB-0592",
    "noradId": "54658",
    "line1": "1 54658U 22166S   26176.71517580 -.00000110  00000+0 -29859-3 0  9990",
    "line2": "2 54658  87.9256 242.2680 0002069  97.8951 262.2418 13.21827787172569"
  },
  {
    "name": "ONEWEB-0593",
    "noradId": "54659",
    "line1": "1 54659U 22166T   26176.66136131  .00000053  00000+0  96325-4 0  9991",
    "line2": "2 54659  87.9246 242.2901 0001888  95.6474 264.4876 13.21824858172668"
  },
  {
    "name": "ONEWEB-0594",
    "noradId": "54660",
    "line1": "1 54660U 22166U   26176.68154193  .00000009  00000+0 -86664-5 0  9991",
    "line2": "2 54660  87.9246 242.3022 0001970 103.0128 257.1226 13.21828216172689"
  },
  {
    "name": "ONEWEB-0595",
    "noradId": "54661",
    "line1": "1 54661U 22166V   26176.65799688  .00000024  00000+0  26071-4 0  9994",
    "line2": "2 54661  87.9257 242.2883 0002209 103.2356 256.9024 13.21824226172654"
  },
  {
    "name": "ONEWEB-0596",
    "noradId": "54662",
    "line1": "1 54662U 22166W   26176.70846095 -.00000074  00000+0 -20968-3 0  9991",
    "line2": "2 54662  87.9250 242.2890 0002146 100.2794 259.8582 13.21827300172667"
  },
  {
    "name": "ONEWEB-0597",
    "noradId": "54663",
    "line1": "1 54663U 22166X   26176.68995775  .00000001  00000+0 -29953-4 0  9992",
    "line2": "2 54663  87.9247 242.2957 0001997  94.9506 265.1856 13.21827510172668"
  },
  {
    "name": "ONEWEB-0600",
    "noradId": "54664",
    "line1": "1 54664U 22166Y   26176.67145936  .00000047  00000+0  81484-4 0  9994",
    "line2": "2 54664  87.9248 242.2909 0001840  98.6555 261.4787 13.21824659172639"
  },
  {
    "name": "ONEWEB-0601",
    "noradId": "54665",
    "line1": "1 54665U 22166Z   26176.66303494 -.00000820  00000+0 -20170-2 0  9993",
    "line2": "2 54665  87.9244 242.3087 0002002  90.6471 269.4893 13.21824210172824"
  },
  {
    "name": "ONEWEB-0602",
    "noradId": "54666",
    "line1": "1 54666U 22166AA  26176.70425198 -.00000067  00000+0 -19453-3 0  9991",
    "line2": "2 54666  87.9249 242.3061 0001790  98.4320 261.7017 13.21826690172674"
  },
  {
    "name": "ONEWEB-0603",
    "noradId": "54667",
    "line1": "1 54667U 22166AB  26176.71014725 -.00000087  00000+0 -24241-3 0  9996",
    "line2": "2 54667  87.9257 242.2628 0001985  96.0906 264.0454 13.21826700172608"
  },
  {
    "name": "ONEWEB-0604",
    "noradId": "54668",
    "line1": "1 54668U 22166AC  26176.69835088 -.00000121  00000+0 -32533-3 0  9999",
    "line2": "2 54668  87.9259 242.2810 0002094 100.5350 259.6020 13.21827883172567"
  }
]