OBJECT_NAME,OBJECT_ID,EPOCH,MEAN_MOTION,ECCENTRICITY,INCLINATION,RA_OF_ASC_NODE,ARG_OF_PERICENTER,MEAN_ANOMALY,EPHEMERIS_TYPE,CLASSIFICATION_TYPE,NORAD_CAT_ID,ELEMENT_SET_NO,REV_AT_EPOCH,BSTAR,MEAN_MOTION_DOT,MEAN_MOTION_DDOT
ONEWEB-0531,2022-138AK,2026-06-25T19:02:42.573120,13.20771916,.0002921,87.9196,272.7200,96.4296,263.7170,0,U,54146,999,18044,-.35885E-3,-.133E-5,0
ONEWEB-0535,2022-138AL,2026-06-25T19:09:26.686656,13.19725681,.0002099,87.9183,303.2435,92.8441,267.2932,0,U,54147,999,17797,-.16697E-3,-.54E-6,0
ONEWEB-0536,2022-138AM,2026-06-25T16:54:13.116672,13.20771625,.0003041,87.9185,272.7594,98.8944,261.2534,0,U,54148,999,18042,-.15723E-3,-.51E-6,0
ONEWEB-0527,2022-166A,2026-06-25T15:42:40.844160,13.21823349,.0002052,87.9248,242.3129,99.8619,260.2746,0,U,54642,999,17265,-.55868E-4,-.1E-6,0
ONEWEB-0528,2022-166B,2026-06-25T15:43:52.951872,13.21824682,.0001964,87.9249,242.3150,104.3618,255.7734,0,U,54643,999,17266,.21989E-4,.22E-6,0
ONEWEB-0539,2022-166C,2026-06-25T16:38:22.939584,13.21826663,.0001896,87.9258,242.2794,92.6250,267.5101,0,U,54644,999,17266,-.27086E-4,.2E-7,0
ONEWEB-0540,2022-166D,2026-06-25T16:48:15.742080,13.21827518,.0002009,87.9247,242.3077,94.8946,265.2418,0,U,54645,999,17265,-.24507E-3,-.88E-6,0
ONEWEB-0542,2022-166E,2026-06-25T16:52:55.210656,13.21824619,.0001908,87.9257,242.2762,90.4743,269.6610,0,U,54646,999,17266,-.45495E-4,-.6E-7,0
ONEWEB-0545,2022-166F,2026-06-25T16:02:03.064128,13.21828025,.0001934,87.9249,242.2946,82.4860,277.6493,0,U,54647,999,17262,-.14408E-4,.7E-7,0
ONEWEB-0580,2022-166G,2026-06-25T17:14:41.177760,13.21828156,.00021,87.9248,242.2841,86.4628,273.6746,0,U,54648,999,17267,-.15572E-3,-.51E-6,0
ONEWEB-0582,2022-166H,2026-06-25T16:26:16.404576,13.21827357,.0001952,87.9248,242.2834,85.2225,274.9131,0,U,54649,999,17264,.11038E-3,.59E-6,0
ONEWEB-0583,2022-166J,2026-06-25T16:43:13.514880,13.21829855,.0001806,87.9230,242.3042,94.4822,265.6519,0,U,54650,999,17265,.18147E-2,.763E-5,0
ONEWEB-0584,2022-166K,2026-06-25T17:12:17.916192,13.21826114,.0002065,87.9245,242.2857,94.2466,265.8904,0,U,54651,999,17264,-.88935E-4,-.24E-6,0
ONEWEB-0585,2022-166L,2026-06-25T15:57:12.661632,13.21827098,.0002087,87.9252,242.2837,102.6371,257.4996,0,U,54652,999,17264,-.21592E-4,.4E-7,0
ONEWEB-0586,2022-166M,2026-06-25T16:16:35.445792,13.21824770,.0001959,87.9247,242.3063,94.5414,265.5944,0,U,54653,999,17264,.49479E-4,.33E-6,0
ONEWEB-0587,2022-166N,2026-06-25T16:31:07.443840,13.21825079,.0002173,87.9259,242.2784,106.9672,253.1700,0,U,54654,999,17280,.14777E-3,.74E-6,0
ONEWEB-0589,2022-166P,2026-06-25T16:11:44.821248,13.21824577,.0002125,87.9245,242.2925,74.2193,285.9175,0,U,54655,999,17266,.22837E-3,.107E-5,0
ONEWEB-0590,2022-166Q,2026-06-25T16:47:52.013184,13.21827525,.0002522,87.9257,242.2783,95.0641,265.0781,0,U,54656,999,17265,-.14332E-3,-.46E-6,0
ONEWEB-0591,2022-166R,2026-06-25T17:05:02.389344,13.21826726,.0002124,87.9248,242.2899,96.9874,263.1501,0,U,54657,999,17268,-.28076E-3,-.103E-5,0
ONEWEB-0592,2022-166S,2026-06-25T17:09:51.189120,13.21827787,.0002069,87.9256,242.2680,97.8951,262.2418,0,U,54658,999,17256,-.29859E-3,-.11E-5,0
ONEWEB-0593,2022-166T,2026-06-25T15:52:21.617184,13.21824858,.0001888,87.9246,242.2901,95.6474,264.4876,0,U,54659,999,17266,.96325E-4,.53E-6,0
ONEWEB-0594,2022-166U,2026-06-25T16:21:25.222752,13.21828216,.000197,87.9246,242.3022,103.0128,257.1226,0,U,54660,999,17268,-.86664E-5,.9E-7,0
ONEWEB-0595,2022-166V,2026-06-25T15:47:30.930432,13.21824226,.0002209,87.9257,242.2883,103.2356,256.9024,0,U,54661,999,17265,.26071E-4,.24E-6,0
ONEWEB-0596,2022-166W,2026-06-25T17:00:11.026080,13.21827300,.0002146,87.9250,242.2890,100.2794,259.8582,0,U,54662,999,17266,-.20968E-3,-.74E-6,0
ONEWEB-0597,2022-166X,2026-06-25T16:33:32.349600,13.21827510,.0001997,87.9247,242.2957,94.9506,265.1856,0,U,54663,999,17266,-.29953E-4,.1E-7,0
ONEWEB-0600,2022-166Y,2026-06-25T16:06:54.088704,13.21824659,.000184,87.9248,242.2909,98.6555,261.4787,0,U,54664,999,17263,.81484E-4,.47E-6,0
ONEWEB-0601,2022-166Z,2026-06-25T15:54:46.218816,13.21824210,.0002002,87.9244,242.3087,90.6471,269.4893,0,U,54665,999,17282,-.2017E-2,-.82E-5,0
ONEWEB-0602,2022-166AA,2026-06-25T16:54:07.371072,13.21826690,.000179,87.9249,242.3061,98.4320,261.7017,0,U,54666,999,17267,-.19453E-3,-.67E-6,0
ONEWEB-0603,2022-166AB,2026-06-25T17:02:36.722400,13.21826700,.0001985,87.9257,242.2628,96.0906,264.0454,0,U,54667,999,17260,-.24241E-3,-.87E-6,0
ONEWEB-0604,2022-166AC,2026-06-25T16:45:37.516032,13.21827883,.0002094,87.9259,242.2810,100.5350,259.6020,0,U,54668,999,17256,-.32533E-3,-.121E-5,0
